STARLINK-37531          
1 69136U 26110N   26160.91668981 -.02479638  00000+0 -34708-1 0  9991
2 69136  97.2842 357.3353 0002122  88.5692  81.7173 15.60399457  4485
STARLINK-37662          
1 69137U 26110P   26160.91668981 -.02315036  00000+0 -45716-1 0  9994
2 69137  97.2852 357.2878 0001555  88.0967 328.5166 15.50867074  4485
STARLINK-37658          
1 69138U 26110Q   26160.91668981  .00121154  00000+0  21993-2 0  9999
2 69138  97.2849 357.2120 0001143 126.4283 114.2659 15.49135429  4480
STARLINK-37659          
1 69139U 26110R   26160.91668981  .00127160  00000+0  23080-2 0  9992
2 69139  97.2852 357.1941 0001389  96.0959 101.8565 15.49116441  4491
STARLINK-37653          
1 69140U 26110S   26160.91668981  .00127053  00000+0  23062-2 0  9995
2 69140  97.2855 357.1884 0001156  96.4643  87.7460 15.49114983  4493
STARLINK-37654          
1 69141U 26110T   26160.91668981 -.00584017  00000+0 -11403-1 0  9990
2 69141  97.2845 357.2913 0001637 106.1927 320.6521 15.49561224  4496
STARLINK-37655          
1 69142U 26110U   26160.91668981 -.02334282  00000+0 -34372-1 0  9990
2 69142  97.2841 357.3270 0001562  73.6138  73.9284 15.58854736  4496
STARLINK-37636          
1 69143U 26110V   26160.91668981 -.02496489  00000+0 -32347-1 0  9999
2 69143  97.2842 357.3840 0001655 106.1769 179.2292 15.62417755  4496
STARLINK-37638          
1 69144U 26110W   26160.91668981 -.02522821  00000+0 -32202-1 0  9990
2 69144  97.2843 357.3887 0001741 109.7932 186.1112 15.62839161  4493
STARLINK-37657          
1 69145U 26110X   26160.91668981 -.00554138  00000+0 -10786-1 0  9998
2 69145  97.2849 357.2902 0001503 103.6419 322.0192 15.49543017  4548
STARLINK-37639          
1 69146U 26110Y   26160.91668981 -.02488937  00000+0 -30910-1 0  9995
2 69146  97.2838 357.3952 0001573 102.4417 207.3254 15.63484845  4548
STARLINK-37661          
1 69147U 26110Z   26160.91668981  .00134906  00000+0  24431-2 0  9998
2 69147  97.2854 357.2406 0001776  65.7175 240.4183 15.49150860  4547
STARLINK-37395          
1 69148U 26111A   26160.55764404  .00243651  00000+0  11984-2 0  9994
2 69148  53.1586 189.8974 0000841 118.9718 241.1389 15.80964750  3053
STARLINK-37346          
1 69149U 26111B   26159.79798346  .00131475  00000+0  66053-3 0  9999
2 69149  53.1585 193.6931 0000916  41.1598 318.9494 15.80841008  2931
STARLINK-37332          
1 69150U 26111C   26160.91668981 -.02549130  00000+0 -24725-1 0  9991
2 69150  53.1597 188.1605 0001154  85.9408 127.2843 15.69134384  4372
STARLINK-37297          
1 69151U 26111D   26160.55638362  .00241673  00000+0  11890-2 0  9999
2 69151  53.1588 189.8890 0000790 105.2759 254.8352 15.80963403  3058
STARLINK-37317          
1 69152U 26111E   26160.55442047  .00235801  00000+0  11607-2 0  9995
2 69152  53.1582 189.8755 0000907  81.2976 278.8149 15.80969068  3050
STARLINK-37374          
1 69153U 26111F   26160.91668981 -.02476361  00000+0 -29263-1 0  9991
2 69153  53.1600 188.2274 0001356  74.1687 105.7643 15.64196802  4373
STARLINK-37235          
1 69154U 26111G   26160.91668981 -.02489911  00000+0 -34590-1 0  9996
2 69154  53.1593 188.4084 0000707  78.8908  12.4906 15.60116037  4376
STARLINK-37329          
1 69155U 26111H   26160.55487421  .00143344  00000+0  71620-3 0  9995
2 69155  53.1588 189.8784 0001083  89.0777 271.0369 15.80921149  3059
STARLINK-37345          
1 69156U 26111J   26160.55342352  .00254104  00000+0  12479-2 0  9992
2 69156  53.1585 189.8699 0001074 128.5044 231.6075 15.80969200  3054
STARLINK-37353          
1 69157U 26111K   26160.55321023  .00159093  00000+0  79270-3 0  9999
2 69157  53.1588 189.8674 0001126 100.9763 259.1387 15.80930971  3055
STARLINK-37363          
1 69158U 26111L   26160.48793533 -.00612951  00000+0 -33745-2 0  9996
2 69158  53.1582 190.1692 0003571  54.3385 305.7969 15.80550751  3040
STARLINK-37343          
1 69159U 26111M   26160.91668981 -.02305338  00000+0 -27108-1 0  9998
2 69159  53.1601 188.2285 0001153  59.9747 119.1282 15.64068181  4371
STARLINK-37328          
1 69160U 26111N   26160.55100764  .00281545  00000+0  13776-2 0  9996
2 69160  53.1586 189.8515 0001570  83.7961 276.3241 15.80973992  3052
STARLINK-37311          
1 69161U 26111P   26160.91668981  .00099425  00000+0  57119-3 0  9991
2 69161  53.1592 188.0755 0000982  95.1696 159.7697 15.78001320  4374
STARLINK-36286          
1 69162U 26111Q   26160.91668981 -.00015484  00000+0 -85488-4 0  9998
2 69162  53.1591 188.0654 0000775  79.9951 179.8558 15.78057262  4371
STARLINK-37196          
1 69163U 26111R   26160.55706140  .00188109  00000+0  10604-2 0  9998
2 69163  53.1590 189.8922 0001592 130.8558 229.2601 15.78120301  3054
STARLINK-36288          
1 69164U 26111S   26160.55625245  .00227083  00000+0  12727-2 0  9998
2 69164  53.1591 189.8858 0000939  87.4414 272.6715 15.78133196  3050
STARLINK-37445          
1 69165U 26111T   26160.91668981 -.00019353  00000+0 -10782-3 0  9994
2 69165  53.1590 188.0505 0001045  85.2531 181.5230 15.78064146  4379
