OBJECT_NAME,OBJECT_ID,EPOCH,MEAN_MOTION,ECCENTRICITY,INCLINATION,RA_OF_ASC_NODE,ARG_OF_PERICENTER,MEAN_ANOMALY,EPHEMERIS_TYPE,CLASSIFICATION_TYPE,NORAD_CAT_ID,ELEMENT_SET_NO,REV_AT_EPOCH,BSTAR,MEAN_MOTION_DOT,MEAN_MOTION_DDOT
STARLINK-37531,2026-110N,2026-06-09T22:00:01.999584,15.60399457,.00021229,97.2842,357.3353,88.5692,81.7173,0,U,69136,999,448,-.34707525E-1,-.2479638E-1,0
STARLINK-37662,2026-110P,2026-06-09T22:00:01.999584,15.50867074,.00015557,97.2852,357.2878,88.0967,328.5166,0,U,69137,999,448,-.45716128E-1,-.2315036E-1,0
STARLINK-37658,2026-110Q,2026-06-09T22:00:01.999584,15.49135429,.00011433,97.2849,357.2120,126.4283,114.2659,0,U,69138,999,448,.21993222E-2,.121154E-2,0
STARLINK-37659,2026-110R,2026-06-09T22:00:01.999584,15.49116441,.00013897,97.2852,357.1941,96.0959,101.8565,0,U,69139,999,449,.23080154E-2,.12716E-2,0
STARLINK-37653,2026-110S,2026-06-09T22:00:01.999584,15.49114983,.00011561,97.2855,357.1884,96.4643,87.7460,0,U,69140,999,449,.23062232E-2,.127053E-2,0
STARLINK-37654,2026-110T,2026-06-09T22:00:01.999584,15.49561224,.00016377,97.2845,357.2913,106.1927,320.6521,0,U,69141,999,449,-.11403079E-1,-.584017E-2,0
STARLINK-37655,2026-110U,2026-06-09T22:00:01.999584,15.58854736,.00015626,97.2841,357.3270,73.6138,73.9284,0,U,69142,999,449,-.34372044E-1,-.2334282E-1,0
STARLINK-37636,2026-110V,2026-06-09T22:00:01.999584,15.62417755,.00016552,97.2842,357.3840,106.1769,179.2292,0,U,69143,999,449,-.32347363E-1,-.2496489E-1,0
STARLINK-37638,2026-110W,2026-06-09T22:00:01.999584,15.62839161,.00017417,97.2843,357.3887,109.7932,186.1112,0,U,69144,999,449,-.32201974E-1,-.2522821E-1,0
STARLINK-37657,2026-110X,2026-06-09T22:00:01.999584,15.49543017,.00015035,97.2849,357.2902,103.6419,322.0192,0,U,69145,999,454,-.10786315E-1,-.554138E-2,0
STARLINK-37639,2026-110Y,2026-06-09T22:00:01.999584,15.63484845,.00015732,97.2838,357.3952,102.4417,207.3254,0,U,69146,999,454,-.30910435E-1,-.2488937E-1,0
STARLINK-37661,2026-110Z,2026-06-09T22:00:01.999584,15.49150860,.00017762,97.2854,357.2406,65.7175,240.4183,0,U,69147,999,454,.24431295E-2,.134906E-2,0
STARLINK-37395,2026-111A,2026-06-09T13:23:00.445056,15.80964750,.00008413,53.1586,189.8974,118.9718,241.1389,0,U,69148,999,305,.11984027E-2,.243651E-2,0
STARLINK-37346,2026-111B,2026-06-08T19:09:05.770944,15.80841008,.00009163,53.1585,193.6931,41.1598,318.9494,0,U,69149,999,293,.66052833E-3,.131475E-2,0
STARLINK-37332,2026-111C,2026-06-09T22:00:01.999584,15.69134384,.00011543,53.1597,188.1605,85.9408,127.2843,0,U,69150,999,437,-.24724783E-1,-.254913E-1,0
STARLINK-37297,2026-111D,2026-06-09T13:21:11.544768,15.80963403,.00007909,53.1588,189.8890,105.2759,254.8352,0,U,69151,999,305,.1189049E-2,.241673E-2,0
STARLINK-37317,2026-111E,2026-06-09T13:18:21.928608,15.80969068,.00009076,53.1582,189.8755,81.2976,278.8149,0,U,69152,999,305,.11607405E-2,.235801E-2,0
STARLINK-37374,2026-111F,2026-06-09T22:00:01.999584,15.64196802,.00013561,53.1600,188.2274,74.1687,105.7643,0,U,69153,999,437,-.29263333E-1,-.2476361E-1,0
STARLINK-37235,2026-111G,2026-06-09T22:00:01.999584,15.60116037,.0000707,53.1593,188.4084,78.8908,12.4906,0,U,69154,999,437,-.34589829E-1,-.2489911E-1,0
STARLINK-37329,2026-111H,2026-06-09T13:19:01.131744,15.80921149,.00010832,53.1588,189.8784,89.0777,271.0369,0,U,69155,999,305,.71620445E-3,.143344E-2,0
STARLINK-37345,2026-111J,2026-06-09T13:16:55.792128,15.80969200,.00010741,53.1585,189.8699,128.5044,231.6075,0,U,69156,999,305,.12478956E-2,.254104E-2,0
STARLINK-37353,2026-111K,2026-06-09T13:16:37.363872,15.80930971,.00011262,53.1588,189.8674,100.9763,259.1387,0,U,69157,999,305,.79270012E-3,.159093E-2,0
STARLINK-37363,2026-111L,2026-06-09T11:42:37.612512,15.80550751,.00035717,53.1582,190.1692,54.3385,305.7969,0,U,69158,999,304,-.33745229E-2,-.612951E-2,0
STARLINK-37343,2026-111M,2026-06-09T22:00:01.999584,15.64068181,.00011532,53.1601,188.2285,59.9747,119.1282,0,U,69159,999,437,-.27107676E-1,-.2305338E-1,0
STARLINK-37328,2026-111N,2026-06-09T13:13:27.060096,15.80973992,.00015702,53.1586,189.8515,83.7961,276.3241,0,U,69160,999,305,.13775649E-2,.281545E-2,0
STARLINK-37311,2026-111P,2026-06-09T22:00:01.999584,15.78001320,.00009826,53.1592,188.0755,95.1696,159.7697,0,U,69161,999,437,.57118728E-3,.99425E-3,0
STARLINK-36286,2026-111Q,2026-06-09T22:00:01.999584,15.78057262,.00007756,53.1591,188.0654,79.9951,179.8558,0,U,69162,999,437,-.85487932E-4,-.15484E-3,0
STARLINK-37196,2026-111R,2026-06-09T13:22:10.104960,15.78120301,.00015926,53.1590,189.8922,130.8558,229.2601,0,U,69163,999,305,.10604169E-2,.188109E-2,0
STARLINK-36288,2026-111S,2026-06-09T13:21:00.211680,15.78133196,.00009391,53.1591,189.8858,87.4414,272.6715,0,U,69164,999,305,.12727466E-2,.227083E-2,0
STARLINK-37445,2026-111T,2026-06-09T22:00:01.999584,15.78064146,.00010454,53.1590,188.0505,85.2531,181.5230,0,U,69165,999,437,-.10781795E-3,-.19353E-3,0
